{
  "type": "FeatureCollection",
  "features": [
    {
      "type": "Feature",
      "properties": {
        "norad_id": 56759,
        "name": "NVS-01 (IRNSS-1J)",
        "group": "gnss",
        "lat": 1.682088808005172,
        "lon": 31.58293290422221,
        "alt_km": 35806.089407713895,
        "timestamp": "2025-12-20T11:30:28.621570+00:00",
        "meta_object_name": "NVS-01 (IRNSS-1J)",
        "meta_object_id": "2023-076A",
        "meta_epoch": "2025-12-20T00:00:38.824704",
        "meta_mean_motion": 1.00274002,
        "meta_eccentricity": 0.000875,
        "meta_inclination": 2.6013,
        "meta_ra_of_asc_node": 251.3437,
        "meta_arg_of_pericenter": 16.0887,
        "meta_mean_anomaly": 311.117,
        "meta_ephemeris_type": 0,
        "meta_classification_type": "U",
        "meta_norad_cat_id": 56759,
        "meta_element_set_no": 999,
        "meta_rev_at_epoch": 931,
        "meta_bstar": 0,
        "meta_mean_motion_dot": -3.08e-06,
        "meta_mean_motion_ddot": 0,
        "tle_line1": "1 56759U 23076A   25354.00044936 -.00000308  00000+0  00000+0 0  9995",
        "tle_line2": "2 56759   2.6013 251.3437 0008750  16.0887 311.1170  1.00274002  9314"
      },
      "geometry": {
        "type": "Point",
        "coordinates": [
          31.58293290422221,
          1.682088808005172
        ]
      }
    },
    {
      "type": "Feature",
      "properties": {
        "norad_id": 57517,
        "name": "COSMOS 2569 (703K)",
        "group": "gnss",
        "lat": 9.02717691919851,
        "lon": 82.86996453364709,
        "alt_km": 19125.71394795056,
        "timestamp": "2025-12-20T11:30:28.621581+00:00",
        "meta_object_name": "COSMOS 2569 (703K)",
        "meta_object_id": "2023-114A",
        "meta_epoch": "2025-12-19T12:40:20.363808",
        "meta_mean_motion": 2.13104046,
        "meta_eccentricity": 0.0010771,
        "meta_inclination": 65.1977,
        "meta_ra_of_asc_node": 78.6841,
        "meta_arg_of_pericenter": 287.0303,
        "meta_mean_anomaly": 72.8809,
        "meta_ephemeris_type": 0,
        "meta_classification_type": "U",
        "meta_norad_cat_id": 57517,
        "meta_element_set_no": 999,
        "meta_rev_at_epoch": 1843,
        "meta_bstar": 0,
        "meta_mean_motion_dot": -2.7e-07,
        "meta_mean_motion_ddot": 0,
        "tle_line1": "1 57517U 23114A   25353.52801347 -.00000027  00000+0  00000+0 0  9992",
        "tle_line2": "2 57517  65.1977  78.6841 0010771 287.0303  72.8809  2.13104046 18436"
      },
      "geometry": {
        "type": "Point",
        "coordinates": [
          82.86996453364709,
          9.02717691919851
        ]
      }
    },
    {
      "type": "Feature",
      "properties": {
        "norad_id": 58654,
        "name": "BEIDOU-3 M28 (C50)",
        "group": "gnss",
        "lat": -7.1441986342812935,
        "lon": 63.436229201125684,
        "alt_km": 21527.969375158573,
        "timestamp": "2025-12-20T11:30:28.621593+00:00",
        "meta_object_name": "BEIDOU-3 M28 (C50)",
        "meta_object_id": "2023-207A",
        "meta_epoch": "2025-12-18T08:16:11.764704",
        "meta_mean_motion": 1.86229821,
        "meta_eccentricity": 0.00026501,
        "meta_inclination": 55.5892,
        "meta_ra_of_asc_node": 68.4116,
        "meta_arg_of_pericenter": 272.4264,
        "meta_mean_anomaly": 87.5728,
        "meta_ephemeris_type": 0,
        "meta_classification_type": "U",
        "meta_norad_cat_id": 58654,
        "meta_element_set_no": 999,
        "meta_rev_at_epoch": 1347,
        "meta_bstar": 0,
        "meta_mean_motion_dot": -6.6e-07,
        "meta_mean_motion_ddot": 0,
        "tle_line1": "1 58654U 23207A   25352.34458061 -.00000066  00000+0  00000+0 0  9991",
        "tle_line2": "2 58654  55.5892  68.4116 0002650 272.4264  87.5728  1.86229821 13471"
      },
      "geometry": {
        "type": "Point",
        "coordinates": [
          63.436229201125684,
          -7.1441986342812935
        ]
      }
    },
    {
      "type": "Feature",
      "properties": {
        "norad_id": 58655,
        "name": "BEIDOU-3 M26 (C48)",
        "group": "gnss",
        "lat": 41.22618771609931,
        "lon": -148.49880789925587,
        "alt_km": 21530.485457938834,
        "timestamp": "2025-12-20T11:30:28.621604+00:00",
        "meta_object_name": "BEIDOU-3 M26 (C48)",
        "meta_object_id": "2023-207B",
        "meta_epoch": "2025-12-19T05:11:10.015296",
        "meta_mean_motion": 1.86231346,
        "meta_eccentricity": 0.0004042,
        "meta_inclination": 55.592,
        "meta_ra_of_asc_node": 68.3684,
        "meta_arg_of_pericenter": 258.4158,
        "meta_mean_anomaly": 101.5732,
        "meta_ephemeris_type": 0,
        "meta_classification_type": "U",
        "meta_norad_cat_id": 58655,
        "meta_element_set_no": 999,
        "meta_rev_at_epoch": 1347,
        "meta_bstar": 0,
        "meta_mean_motion_dot": -5.7e-07,
        "meta_mean_motion_ddot": 0,
        "tle_line1": "1 58655U 23207B   25353.21608814 -.00000057  00000+0  00000+0 0  9992",
        "tle_line2": "2 58655  55.5920  68.3684 0004042 258.4158 101.5732  1.86231346 13473"
      },
      "geometry": {
        "type": "Point",
        "coordinates": [
          -148.49880789925587,
          41.22618771609931
        ]
      }
    },
    {
      "type": "Feature",
      "properties": {
        "norad_id": 59598,
        "name": "GSAT0225 (GALILEO 29)",
        "group": "gnss",
        "lat": -9.613926305281998,
        "lon": 99.26734810831415,
        "alt_km": 23229.77082701512,
        "timestamp": "2025-12-20T11:30:28.621615+00:00",
        "meta_object_name": "GSAT0225 (GALILEO 29)",
        "meta_object_id": "2024-079A",
        "meta_epoch": "2025-12-19T07:40:30.040032",
        "meta_mean_motion": 1.7047502,
        "meta_eccentricity": 0.0002191,
        "meta_inclination": 55.0052,
        "meta_ra_of_asc_node": 106.1117,
        "meta_arg_of_pericenter": 185.2617,
        "meta_mean_anomaly": 171.1938,
        "meta_ephemeris_type": 0,
        "meta_classification_type": "U",
        "meta_norad_cat_id": 59598,
        "meta_element_set_no": 999,
        "meta_rev_at_epoch": 1024,
        "meta_bstar": 0,
        "meta_mean_motion_dot": -6e-08,
        "meta_mean_motion_ddot": 0,
        "tle_line1": "1 59598U 24079A   25353.31979213 -.00000006  00000+0  00000+0 0  9996",
        "tle_line2": "2 59598  55.0052 106.1117 0002191 185.2617 171.1938  1.70475020 10248"
      },
      "geometry": {
        "type": "Point",
        "coordinates": [
          99.26734810831415,
          -9.613926305281998
        ]
      }
    },
    {
      "type": "Feature",
      "properties": {
        "norad_id": 59600,
        "name": "GSAT0227 (GALILEO 30)",
        "group": "gnss",
        "lat": -42.63424061749291,
        "lon": -33.82675922552757,
        "alt_km": 23231.23655121515,
        "timestamp": "2025-12-20T11:30:28.621634+00:00",
        "meta_object_name": "GSAT0227 (GALILEO 30)",
        "meta_object_id": "2024-079C",
        "meta_epoch": "2025-12-19T12:12:51.636672",
        "meta_mean_motion": 1.70474897,
        "meta_eccentricity": 0.0002924,
        "meta_inclination": 55.0006,
        "meta_ra_of_asc_node": 106.105,
        "meta_arg_of_pericenter": 116.8359,
        "meta_mean_anomaly": 243.1562,
        "meta_ephemeris_type": 0,
        "meta_classification_type": "U",
        "meta_norad_cat_id": 59600,
        "meta_element_set_no": 999,
        "meta_rev_at_epoch": 1030,
        "meta_bstar": 0,
        "meta_mean_motion_dot": -6e-08,
        "meta_mean_motion_ddot": 0,
        "tle_line1": "1 59600U 24079C   25353.50893098 -.00000006  00000+0  00000+0 0  9997",
        "tle_line2": "2 59600  55.0006 106.1050 0002924 116.8359 243.1562  1.70474897 10305"
      },
      "geometry": {
        "type": "Point",
        "coordinates": [
          -33.82675922552757,
          -42.63424061749291
        ]
      }
    },
    {
      "type": "Feature",
      "properties": {
        "norad_id": 61182,
        "name": "GSAT0232 (GALILEO 32)",
        "group": "gnss",
        "lat": 50.552455494810545,
        "lon": -76.24618927843918,
        "alt_km": 23220.337299657953,
        "timestamp": "2025-12-20T11:30:28.621645+00:00",
        "meta_object_name": "GSAT0232 (GALILEO 32)",
        "meta_object_id": "2024-167A",
        "meta_epoch": "2025-12-20T01:45:16.724736",
        "meta_mean_motion": 1.70473657,
        "meta_eccentricity": 0.0001879,
        "meta_inclination": 55.2386,
        "meta_ra_of_asc_node": 226.2297,
        "meta_arg_of_pericenter": 206.8342,
        "meta_mean_anomaly": 333.9154,
        "meta_ephemeris_type": 0,
        "meta_classification_type": "U",
        "meta_norad_cat_id": 61182,
        "meta_element_set_no": 999,
        "meta_rev_at_epoch": 782,
        "meta_bstar": 0,
        "meta_mean_motion_dot": 7e-07,
        "meta_mean_motion_ddot": 0,
        "tle_line1": "1 61182U 24167A   25354.07311024  .00000070  00000+0  00000+0 0  9990",
        "tle_line2": "2 61182  55.2386 226.2297 0001879 206.8342 333.9154  1.70473657  7824"
      },
      "geometry": {
        "type": "Point",
        "coordinates": [
          -76.24618927843918,
          50.552455494810545
        ]
      }
    }
  ]
}